[
    {
        "Altitude(m)": 555994.3997735748,
        "Argument of Periapsis(deg)": 0.006622991110713501,
        "Eccentricity": 0.0,
        "Inclination(deg)": 53.0,
        "Latitude(deg)": -9.625455987877189,
        "Longitude(deg)": -128.4710562059741,
        "Mean Anomaly(deg)": 191.90979286757752,
        "RAAN(deg)": 144.99014336852804,
        "Satellite Name": "Starlink Shell 1 649",
        "Satellite Number": 649,
        "Semi-Major Axis(m)": 6931778.249405717,
        "Time(s)": 190
    },
    {
        "Altitude(m)": 556111.506080172,
        "Argument of Periapsis(deg)": 0.0069715695902247375,
        "Eccentricity": 0.0,
        "Inclination(deg)": 53.0,
        "Latitude(deg)": -10.124715838654367,
        "Longitude(deg)": -128.12453129507512,
        "Mean Anomaly(deg)": 192.53662407113433,
        "RAAN(deg)": 144.98962459845055,
        "Satellite Name": "Starlink Shell 1 649",
        "Satellite Number": 649,
        "Semi-Major Axis(m)": 6931778.249405717,
        "Time(s)": 200
    },
    {
        "Altitude(m)": 556230.9784637187,
        "Argument of Periapsis(deg)": 0.007320148069735974,
        "Eccentricity": 0.0,
        "Inclination(deg)": 53.0,
        "Latitude(deg)": -10.623489216659364,
        "Longitude(deg)": -127.7768170026939,
        "Mean Anomaly(deg)": 193.16345527469105,
        "RAAN(deg)": 144.98910582837308,
        "Satellite Name": "Starlink Shell 1 649",
        "Satellite Number": 649,
        "Semi-Major Axis(m)": 6931778.249405717,
        "Time(s)": 210
    },
    {
        "Altitude(m)": 556352.7821842245,
        "Argument of Periapsis(deg)": 0.007668726549247212,
        "Eccentricity": 0.0,
        "Inclination(deg)": 53.0,
        "Latitude(deg)": -11.121750734216434,
        "Longitude(deg)": -127.42785049569022,
        "Mean Anomaly(deg)": 193.7902864782477,
        "RAAN(deg)": 144.98858705829562,
        "Satellite Name": "Starlink Shell 1 649",
        "Satellite Number": 649,
        "Semi-Major Axis(m)": 6931778.249405717,
        "Time(s)": 220
    },
    {
        "Altitude(m)": 556476.881320611,
        "Argument of Periapsis(deg)": 0.00801730502875845,
        "Eccentricity": 0.0,
        "Inclination(deg)": 53.0,
        "Latitude(deg)": -11.619474743004245,
        "Longitude(deg)": -127.07756840373028,
        "Mean Anomaly(deg)": 194.41711768180446,
        "RAAN(deg)": 144.98806828821813,
        "Satellite Name": "Starlink Shell 1 649",
        "Satellite Number": 649,
        "Semi-Major Axis(m)": 6931778.249405717,
        "Time(s)": 230
    },
    {
        "Altitude(m)": 556603.2387859084,
        "Argument of Periapsis(deg)": 0.008365883508269684,
        "Eccentricity": 0.0,
        "Inclination(deg)": 53.0,
        "Latitude(deg)": -12.116635319748855,
        "Longitude(deg)": -126.72590628854991,
        "Mean Anomaly(deg)": 195.04394888536112,
        "RAAN(deg)": 144.98754951814067,
        "Satellite Name": "Starlink Shell 1 649",
        "Satellite Number": 649,
        "Semi-Major Axis(m)": 6931778.249405717,
        "Time(s)": 240
    },
    {
        "Altitude(m)": 556731.816342976,
        "Argument of Periapsis(deg)": 0.008714461987780921,
        "Eccentricity": 0.0,
        "Inclination(deg)": 53.0,
        "Latitude(deg)": -12.613206251660628,
        "Longitude(deg)": -126.37279962602304,
        "Mean Anomaly(deg)": 195.6707800889179,
        "RAAN(deg)": 144.9870307480632,
        "Satellite Name": "Starlink Shell 1 649",
        "Satellite Number": 649,
        "Semi-Major Axis(m)": 6931778.249405717,
        "Time(s)": 250
    },
    {
        "Altitude(m)": 556862.5746208295,
        "Argument of Periapsis(deg)": 0.009063040467292158,
        "Eccentricity": 0.0,
        "Inclination(deg)": 53.0,
        "Latitude(deg)": -13.10916102160449,
        "Longitude(deg)": -126.01818327529615,
        "Mean Anomaly(deg)": 196.2976112924746,
        "RAAN(deg)": 144.9865119779857,
        "Satellite Name": "Starlink Shell 1 649",
        "Satellite Number": 649,
        "Semi-Major Axis(m)": 6931778.249405717,
        "Time(s)": 260
    },
    {
        "Altitude(m)": 556995.4731315357,
        "Argument of Periapsis(deg)": 0.009411618946803396,
        "Eccentricity": 0.0,
        "Inclination(deg)": 53.0,
        "Latitude(deg)": -13.604472792991354,
        "Longitude(deg)": -125.6619909478705,
        "Mean Anomaly(deg)": 196.9244424960313,
        "RAAN(deg)": 144.98599320790825,
        "Satellite Name": "Starlink Shell 1 649",
        "Satellite Number": 649,
        "Semi-Major Axis(m)": 6931778.249405717,
        "Time(s)": 270
    },
    {
        "Altitude(m)": 557130.4702876265,
        "Argument of Periapsis(deg)": 0.009760197426314633,
        "Eccentricity": 0.0,
        "Inclination(deg)": 53.0,
        "Latitude(deg)": -14.099114394374464,
        "Longitude(deg)": -125.30415618951922,
        "Mean Anomaly(deg)": 197.55127369958802,
        "RAAN(deg)": 144.9854744378308,
        "Satellite Name": "Starlink Shell 1 649",
        "Satellite Number": 649,
        "Semi-Major Axis(m)": 6931778.249405717,
        "Time(s)": 280
    },
    {
        "Altitude(m)": 557267.5234200672,
        "Argument of Periapsis(deg)": 0.01010877590582587,
        "Eccentricity": 0.0,
        "Inclination(deg)": 53.0,
        "Latitude(deg)": -14.593058303743783,
        "Longitude(deg)": -124.94461184930191,
        "Mean Anomaly(deg)": 198.1781049031447,
        "RAAN(deg)": 144.9849556677533,
        "Satellite Name": "Starlink Shell 1 649",
        "Satellite Number": 649,
        "Semi-Major Axis(m)": 6931778.249405717,
        "Time(s)": 290
    },
    {
        "Altitude(m)": 557406.5887967739,
        "Argument of Periapsis(deg)": 0.010457354385337106,
        "Eccentricity": 0.0,
        "Inclination(deg)": 53.0,
        "Latitude(deg)": -15.086276632503155,
        "Longitude(deg)": -124.58328954856809,
        "Mean Anomaly(deg)": 198.80493610670143,
        "RAAN(deg)": 144.98443689767583,
        "Satellite Name": "Starlink Shell 1 649",
        "Satellite Number": 649,
        "Semi-Major Axis(m)": 6931778.249405717,
        "Time(s)": 300
    },
    {
        "Altitude(m)": 557547.6216416352,
        "Argument of Periapsis(deg)": 0.010805932864848343,
        "Eccentricity": 0.0,
        "Inclination(deg)": 53.0,
        "Latitude(deg)": -15.57874110911625,
        "Longitude(deg)": -124.22012066283966,
        "Mean Anomaly(deg)": 199.43176731025818,
        "RAAN(deg)": 144.98391812759837,
        "Satellite Name": "Starlink Shell 1 649",
        "Satellite Number": 649,
        "Semi-Major Axis(m)": 6931778.249405717,
        "Time(s)": 310
    },
    {
        "Altitude(m)": 557690.5761540373,
        "Argument of Periapsis(deg)": 0.01115451134435958,
        "Eccentricity": 0.0,
        "Inclination(deg)": 53.0,
        "Latitude(deg)": -16.070423062412672,
        "Longitude(deg)": -123.85503579084552,
        "Mean Anomaly(deg)": 200.05859851381481,
        "RAAN(deg)": 144.98339935752088,
        "Satellite Name": "Starlink Shell 1 649",
        "Satellite Number": 649,
        "Semi-Major Axis(m)": 6931778.249405717,
        "Time(s)": 320
    },
    {
        "Altitude(m)": 557835.4055289277,
        "Argument of Periapsis(deg)": 0.011503089823870818,
        "Eccentricity": 0.0,
        "Inclination(deg)": 53.0,
        "Latitude(deg)": -16.561293404540645,
        "Longitude(deg)": -123.48796422360412,
        "Mean Anomaly(deg)": 200.6854297173716,
        "RAAN(deg)": 144.98288058744342,
        "Satellite Name": "Starlink Shell 1 649",
        "Satellite Number": 649,
        "Semi-Major Axis(m)": 6931778.249405717,
        "Time(s)": 330
    },
    {
        "Altitude(m)": 557982.0619773256,
        "Argument of Periapsis(deg)": 0.011851668303382053,
        "Eccentricity": 0.0,
        "Inclination(deg)": 53.0,
        "Latitude(deg)": -17.051322613550866,
        "Longitude(deg)": -123.11883492645497,
        "Mean Anomaly(deg)": 201.3122609209283,
        "RAAN(deg)": 144.98236181736596,
        "Satellite Name": "Starlink Shell 1 649",
        "Satellite Number": 649,
        "Semi-Major Axis(m)": 6931778.249405717,
        "Time(s)": 340
    },
    {
        "Altitude(m)": 558130.4967473362,
        "Argument of Periapsis(deg)": 0.012200246782893292,
        "Eccentricity": 0.0,
        "Inclination(deg)": 53.0,
        "Latitude(deg)": -17.540480715604566,
        "Longitude(deg)": -122.7475760083185,
        "Mean Anomaly(deg)": 201.939092124485,
        "RAAN(deg)": 144.98184304728846,
        "Satellite Name": "Starlink Shell 1 649",
        "Satellite Number": 649,
        "Semi-Major Axis(m)": 6931778.249405717,
        "Time(s)": 350
    },
    {
        "Altitude(m)": 558280.6601456444,
        "Argument of Periapsis(deg)": 0.012548825262404526,
        "Eccentricity": 0.0,
        "Inclination(deg)": 53.0,
        "Latitude(deg)": -18.028737266791428,
        "Longitude(deg)": -122.374114191092,
        "Mean Anomaly(deg)": 202.56592332804178,
        "RAAN(deg)": 144.981324277211,
        "Satellite Name": "Starlink Shell 1 649",
        "Satellite Number": 649,
        "Semi-Major Axis(m)": 6931778.249405717,
        "Time(s)": 360
    },
    {
        "Altitude(m)": 558432.5015594341,
        "Argument of Periapsis(deg)": 0.012897403741915765,
        "Eccentricity": 0.0,
        "Inclination(deg)": 53.0,
        "Latitude(deg)": -18.51606133454293,
        "Longitude(deg)": -121.9983757920907,
        "Mean Anomaly(deg)": 203.1927545315984,
        "RAAN(deg)": 144.98080550713354,
        "Satellite Name": "Starlink Shell 1 649",
        "Satellite Number": 649,
        "Semi-Major Axis(m)": 6931778.249405717,
        "Time(s)": 370
    }
]